{
  "type": "FeatureCollection",
  "features": [
    {
      "type": "Feature",
      "geometry": {
        "type": "Point",
        "coordinates": [
          31.71747441146101,
          -18.000000000000004
        ]
      },
      "properties": {
        "severity": "low",
        "radius_km": 5,
        "lead_time_days": 1,
        "intensity": 0.2859619352552626,
        "wind_speed_kmh": 37.7,
        "rainfall_mm": 15.3,
        "humidity_pct": 76.7,
        "temperature_c": 26.4,
        "pressure_hpa": 990.4,
        "region_name": "Bathinda",
        "event_type": "Extreme Wind"
      }
    }
  ]
}